{
"type": "FeatureCollection",
"name": "bukit_brown",
"crs": { "type": "name", "properties": { "name": "urn:ogc:def:crs:OGC:1.3:CRS84" } },
"features": [
{ "type": "Feature", "properties": { "desc": "Bukit Brown", "GPR": null, "Land Use": "Reserve Site" }, "geometry": { "type": "MultiPolygon", "coordinates": [ [ [ [ 103.821832169729447, 1.335424471385178 ], [ 103.821620123911671, 1.335251674255108 ], [ 103.821920373662053, 1.334989806416284 ], [ 103.822241115235144, 1.334245175266413 ], [ 103.822330210116547, 1.333828324237208 ], [ 103.822340901502301, 1.332763037952917 ], [ 103.822668770665928, 1.332923365349584 ], [ 103.823078607120465, 1.332901988363965 ], [ 103.823377965922049, 1.332745223797088 ], [ 103.82378067478605, 1.332100351269308 ], [ 103.823976683525188, 1.331879455668493 ], [ 103.824618166671428, 1.331444790073596 ], [ 103.825052949692775, 1.3309531190624 ], [ 103.825915388144935, 1.331382440494271 ], [ 103.825325580029869, 1.331931116738201 ], [ 103.825314888644129, 1.3321448866703 ], [ 103.825418238706575, 1.332355093752111 ], [ 103.825421802501808, 1.332722065394317 ], [ 103.825297069667812, 1.333331309456251 ], [ 103.825300633463073, 1.333634150015734 ], [ 103.82548238702114, 1.333904925072657 ], [ 103.825724725098624, 1.334051001077835 ], [ 103.826098923600583, 1.334058126736402 ], [ 103.826501632464584, 1.33387642243649 ], [ 103.826711896384765, 1.333748160569649 ], [ 103.826986308619539, 1.334175700099784 ], [ 103.825738980279652, 1.334428660953462 ], [ 103.824616384773734, 1.333594958886606 ], [ 103.824441758806188, 1.333502325306186 ], [ 103.824274260429078, 1.333480948325594 ], [ 103.823247887395127, 1.333723220761431 ], [ 103.822139547070279, 1.335155477909394 ], [ 103.821832169729447, 1.335424471385178 ] ] ] ] } },
{ "type": "Feature", "properties": { "desc": "Bukit Brown", "GPR": "Subject to detailed planning", "Land Use": "Residential" }, "geometry": { "type": "MultiPolygon", "coordinates": [ [ [ [ 103.827724014237617, 1.336299145331375 ], [ 103.827672339206387, 1.335634678186819 ], [ 103.827524441703218, 1.335134100943167 ], [ 103.827406836459744, 1.334485666212669 ], [ 103.826986308619539, 1.334175700099784 ], [ 103.826711896384765, 1.333748160569649 ], [ 103.827078967296117, 1.333363374929018 ], [ 103.827335560554602, 1.33302490602874 ], [ 103.827442474412294, 1.332747005212675 ], [ 103.827442474412294, 1.332518984006841 ], [ 103.827307050192545, 1.332230394637945 ], [ 103.826786736085054, 1.331724472452875 ], [ 103.826412537583096, 1.331524953816123 ], [ 103.826583599755409, 1.331418068825505 ], [ 103.826918596509543, 1.331414505992405 ], [ 103.827346251940355, 1.331649652965985 ], [ 103.827410400255019, 1.331681718460645 ], [ 103.827587699069056, 1.331640745884062 ], [ 103.827684812489778, 1.332019296837437 ], [ 103.827898640205191, 1.331972980018029 ], [ 103.827942296697103, 1.332123509677923 ], [ 103.828011790704593, 1.332181405698511 ], [ 103.828249674038005, 1.332255334461283 ], [ 103.828345005561133, 1.332575098602423 ], [ 103.828580216048096, 1.332689109205381 ], [ 103.82893035893207, 1.332722065394316 ], [ 103.829014108120603, 1.332963447197119 ], [ 103.828908976160506, 1.333050736551717 ], [ 103.828666638083064, 1.333098834766194 ], [ 103.82885195543642, 1.33373301854326 ], [ 103.829632426597684, 1.333811400796495 ], [ 103.830288164924923, 1.334103552809282 ], [ 103.830826298008702, 1.334584534705977 ], [ 103.831506982902724, 1.334345825183818 ], [ 103.831695864051355, 1.334844621173894 ], [ 103.83187761760945, 1.334990697123264 ], [ 103.832390804126405, 1.335058390852956 ], [ 103.832426442078997, 1.334862435314526 ], [ 103.832191231592063, 1.334620162990879 ], [ 103.832508409369893, 1.334659354103676 ], [ 103.832861225100345, 1.334826807033134 ], [ 103.832953883776995, 1.335250783548218 ], [ 103.832095009120138, 1.335906343730103 ], [ 103.832255379906698, 1.336173555710587 ], [ 103.831485600131231, 1.336846929772474 ], [ 103.830309547696487, 1.335792333276251 ], [ 103.829902384088456, 1.335985616620679 ], [ 103.829245754812348, 1.335897436663587 ], [ 103.828780679531377, 1.335893873836971 ], [ 103.827724014237617, 1.336299145331375 ] ] ] ] } },
{ "type": "Feature", "properties": { "desc": "Bukit Brown", "GPR": "Subject to detailed planning", "Land Use": "Residential" }, "geometry": { "type": "MultiPolygon", "coordinates": [ [ [ [ 103.825915388144935, 1.331382440494271 ], [ 103.826129215860291, 1.331335232954592 ], [ 103.82614703483658, 1.331085834616751 ], [ 103.825936770916428, 1.330982512440826 ], [ 103.826674476534563, 1.330259257088161 ], [ 103.827073621603347, 1.329753334498694 ], [ 103.827023728469726, 1.329336482709732 ], [ 103.827362289019149, 1.329242067551174 ], [ 103.826783172289922, 1.328875095391174 ], [ 103.826672694636954, 1.328960603472164 ], [ 103.826530142826698, 1.328921412268745 ], [ 103.826335915985197, 1.328549095805249 ], [ 103.82605081236467, 1.328682702198127 ], [ 103.825749671665463, 1.328655980920129 ], [ 103.825630284524337, 1.328313948536237 ], [ 103.825719379405797, 1.328100178272261 ], [ 103.825667704374567, 1.32790600359979 ], [ 103.825829857058707, 1.327667293431078 ], [ 103.826458866921556, 1.327713610331288 ], [ 103.82635551685911, 1.327230845674959 ], [ 103.826686949817997, 1.327198780122493 ], [ 103.82675109813259, 1.327423238981029 ], [ 103.827178753563402, 1.327765271488189 ], [ 103.827264284649573, 1.327633446464992 ], [ 103.826947106871714, 1.327141774694858 ], [ 103.826854448195036, 1.326867436055991 ], [ 103.826334134087546, 1.326963632725032 ], [ 103.825853021727895, 1.327223719996669 ], [ 103.825478823225922, 1.327537249822007 ], [ 103.825019093637806, 1.328068112731069 ], [ 103.824470269168259, 1.328520593107167 ], [ 103.824823084898682, 1.328652418083041 ], [ 103.82515451785757, 1.328898253830068 ], [ 103.825318452439362, 1.329553815702503 ], [ 103.825186592014873, 1.330530032515964 ], [ 103.825052949692775, 1.3309531190624 ], [ 103.825915388144935, 1.331382440494271 ] ] ] ] } },
{ "type": "Feature", "properties": { "desc": "Bukit Brown", "GPR": "Subject to detailed planning", "Land Use": "Residential" }, "geometry": { "type": "MultiPolygon", "coordinates": [ [ [ [ 103.827454947695827, 1.327770615745739 ], [ 103.827387235585945, 1.328522374525807 ], [ 103.827526223600941, 1.329113805443199 ], [ 103.82776143408789, 1.329573411299273 ], [ 103.828103558432545, 1.329894066497023 ], [ 103.828645255311571, 1.33020759598343 ], [ 103.828880465798562, 1.330756272488774 ], [ 103.829179824600118, 1.331155309870544 ], [ 103.829557586897337, 1.331426085199968 ], [ 103.8300652, 1.3316546 ], [ 103.8300149, 1.3313459 ], [ 103.8300251, 1.3310383 ], [ 103.8308117, 1.3297369 ], [ 103.830984886897667, 1.329430897864681 ], [ 103.830692655686619, 1.329446930626484 ], [ 103.830548321978725, 1.32937923674261 ], [ 103.830437844325758, 1.329256318896094 ], [ 103.829913966423007, 1.327995074552359 ], [ 103.829860509494111, 1.327613850852837 ], [ 103.829954950068441, 1.32735198220275 ], [ 103.830161650193332, 1.327213031479197 ], [ 103.830425371042324, 1.32721659431836 ], [ 103.830580396135986, 1.327298539617692 ], [ 103.831008051566812, 1.327298539617692 ], [ 103.831148821479445, 1.327189873024513 ], [ 103.831328793139903, 1.326942255687792 ], [ 103.831754666673092, 1.326642977147015 ], [ 103.832326655811841, 1.32611745819318 ], [ 103.832073626348631, 1.326128146715387 ], [ 103.831446398383434, 1.326366857032644 ], [ 103.830660581529287, 1.326862091796492 ], [ 103.830213325224548, 1.327066955069095 ], [ 103.829434635960922, 1.327296758198171 ], [ 103.82848666642262, 1.327701140396703 ], [ 103.82810534033014, 1.327816932644013 ], [ 103.827764997883136, 1.327815151224864 ], [ 103.827454947695827, 1.327770615745739 ] ] ] ] } },
{ "type": "Feature", "properties": { "desc": "Gillman Forest", "GPR": "Subject to detailed planning", "Land Use": "Residential" }, "geometry": { "type": "MultiPolygon", "coordinates": [ [ [ [ 103.802788168145895, 1.281207845376744 ], [ 103.803763289650334, 1.281126454842175 ], [ 103.804141397988758, 1.280392131235635 ], [ 103.804007522309135, 1.280249245583311 ], [ 103.803206077362077, 1.280290845204429 ], [ 103.802788168145895, 1.281207845376744 ] ] ] ] } },
{ "type": "Feature", "properties": { "desc": "Gillman Forest", "GPR": "Subject to detailed planning", "Land Use": "Residential" }, "geometry": { "type": "MultiPolygon", "coordinates": [ [ [ [ 103.804738411154702, 1.279010300036325 ], [ 103.804293364976459, 1.278956039633731 ], [ 103.804239091052253, 1.278612390390657 ], [ 103.803602277008551, 1.278619625112037 ], [ 103.803685497025626, 1.278782406337718 ], [ 103.803519056991476, 1.279599929670543 ], [ 103.804130543203897, 1.279545669280417 ], [ 103.804705846800189, 1.279169463877319 ], [ 103.804738411154702, 1.279010300036325 ] ] ] ] } },
{ "type": "Feature", "properties": { "desc": "Gillman Forest", "GPR": "Subject to detailed planning", "Land Use": "Residential" }, "geometry": { "type": "MultiPolygon", "coordinates": [ [ [ [ 103.805279341265717, 1.278775171616795 ], [ 103.806674181117174, 1.278127664011691 ], [ 103.806594579361715, 1.277832849042425 ], [ 103.806265317555017, 1.277764119167424 ], [ 103.806276172339849, 1.277528990633781 ], [ 103.806410048019501, 1.277112993944624 ], [ 103.806287027124682, 1.276338878187324 ], [ 103.806587342838455, 1.275481562800998 ], [ 103.806554778483942, 1.274964279539433 ], [ 103.806344919310447, 1.274302301507636 ], [ 103.805802180068653, 1.274584456099375 ], [ 103.804861432049535, 1.274450613540481 ], [ 103.804619008521513, 1.274631481861659 ], [ 103.804448950225762, 1.275333250827544 ], [ 103.804434477179328, 1.275980759136645 ], [ 103.804682328099744, 1.276561346057332 ], [ 103.80481258551778, 1.276763918410026 ], [ 103.80471670158505, 1.27681998754054 ], [ 103.804615390259912, 1.276677101689397 ], [ 103.804441713702559, 1.276686145097933 ], [ 103.804063605364078, 1.27686882194354 ], [ 103.804888569011638, 1.278037229975638 ], [ 103.804921133366136, 1.278243419573195 ], [ 103.805239540387973, 1.278326618879802 ], [ 103.805279341265717, 1.278775171616795 ] ] ] ] } },
{ "type": "Feature", "properties": { "desc": "Gillman Forest", "GPR": "Subject to detailed planning", "Land Use": "Residential" }, "geometry": { "type": "MultiPolygon", "coordinates": [ [ [ [ 103.804309647153715, 1.281218697447823 ], [ 103.80453759763526, 1.281285618551803 ], [ 103.804629863306374, 1.281077620520193 ], [ 103.805302859966204, 1.281385095865299 ], [ 103.80525039517282, 1.28154968559369 ], [ 103.806339491917996, 1.281909612545292 ], [ 103.806243607985294, 1.281819178642613 ], [ 103.806239989723693, 1.281464677713315 ], [ 103.805577847848667, 1.281473721104978 ], [ 103.805572420456258, 1.281319983442357 ], [ 103.806220089284821, 1.28131094005015 ], [ 103.806115159698081, 1.280923882833801 ], [ 103.805474727392749, 1.280918456797642 ], [ 103.805460254346329, 1.280835257575102 ], [ 103.805074909484603, 1.280890422277306 ], [ 103.805053199914951, 1.280485278207229 ], [ 103.805442163038251, 1.280382183500604 ], [ 103.80584198094634, 1.280385800858802 ], [ 103.805518146532066, 1.280159715961656 ], [ 103.805058627307361, 1.280130777093382 ], [ 103.804687755492139, 1.28088318756233 ], [ 103.804568352858936, 1.280828927199363 ], [ 103.80463619526418, 1.280634494222631 ], [ 103.804679614403511, 1.280647154975053 ], [ 103.804923847062298, 1.280157002942769 ], [ 103.80477730746702, 1.280157002942769 ], [ 103.804309647153715, 1.281218697447823 ] ] ] ] } }
]
}
