{
"type": "FeatureCollection",
"name": "Gillman Forest",
"crs": { "type": "name", "properties": { "name": "urn:ogc:def:crs:OGC:1.3:CRS84" } },
"features": [
{ "type": "Feature", "properties": { "desc": "Gillman Forest", "GPR": "Subject to detailed planning" }, "geometry": { "type": "MultiPolygon", "coordinates": [ [ [ [ 103.802788168145895, 1.281207845376744 ], [ 103.803763289650334, 1.281126454842175 ], [ 103.804141397988758, 1.280392131235635 ], [ 103.804007522309135, 1.280249245583311 ], [ 103.803206077362077, 1.280290845204429 ], [ 103.802788168145895, 1.281207845376744 ] ] ] ] } },
{ "type": "Feature", "properties": { "desc": "Gillman Forest", "GPR": "Subject to detailed planning" }, "geometry": { "type": "MultiPolygon", "coordinates": [ [ [ [ 103.804738411154702, 1.279010300036325 ], [ 103.804705846800189, 1.279169463877319 ], [ 103.804130543203897, 1.279545669280417 ], [ 103.803519056991476, 1.279599929670543 ], [ 103.803685497025626, 1.278782406337718 ], [ 103.803602277008551, 1.278619625112037 ], [ 103.804239091052253, 1.278612390390657 ], [ 103.804293364976459, 1.278956039633731 ], [ 103.804738411154702, 1.279010300036325 ] ] ] ] } },
{ "type": "Feature", "properties": { "desc": "Gillman Forest", "GPR": "Subject to detailed planning" }, "geometry": { "type": "MultiPolygon", "coordinates": [ [ [ [ 103.805279341265717, 1.278775171616795 ], [ 103.805239540387973, 1.278326618879802 ], [ 103.804921133366136, 1.278243419573195 ], [ 103.804888569011638, 1.278037229975638 ], [ 103.804063605364078, 1.27686882194354 ], [ 103.804441713702559, 1.276686145097933 ], [ 103.804615390259912, 1.276677101689397 ], [ 103.80471670158505, 1.27681998754054 ], [ 103.80481258551778, 1.276763918410026 ], [ 103.804682328099744, 1.276561346057332 ], [ 103.804434477179328, 1.275980759136645 ], [ 103.804448950225762, 1.275333250827544 ], [ 103.804619008521513, 1.274631481861659 ], [ 103.804861432049535, 1.274450613540481 ], [ 103.805802180068653, 1.274584456099375 ], [ 103.806344919310447, 1.274302301507636 ], [ 103.806554778483942, 1.274964279539433 ], [ 103.806587342838455, 1.275481562800998 ], [ 103.806287027124682, 1.276338878187324 ], [ 103.806410048019501, 1.277112993944624 ], [ 103.806276172339849, 1.277528990633781 ], [ 103.806265317555017, 1.277764119167424 ], [ 103.806594579361715, 1.277832849042425 ], [ 103.806674181117174, 1.278127664011691 ], [ 103.805279341265717, 1.278775171616795 ] ] ] ] } },
{ "type": "Feature", "properties": { "desc": "Gillman Forest", "GPR": "Subject to detailed planning" }, "geometry": { "type": "MultiPolygon", "coordinates": [ [ [ [ 103.804309647153715, 1.281218697447823 ], [ 103.80453759763526, 1.281285618551803 ], [ 103.804629863306374, 1.281077620520193 ], [ 103.805302859966204, 1.281385095865299 ], [ 103.80525039517282, 1.28154968559369 ], [ 103.806339491917996, 1.281909612545292 ], [ 103.806243607985294, 1.281819178642613 ], [ 103.806239989723693, 1.281464677713315 ], [ 103.805577847848667, 1.281473721104978 ], [ 103.805572420456258, 1.281319983442357 ], [ 103.806220089284821, 1.28131094005015 ], [ 103.806115159698081, 1.280923882833801 ], [ 103.805474727392749, 1.280918456797642 ], [ 103.805460254346329, 1.280835257575102 ], [ 103.805074909484603, 1.280890422277306 ], [ 103.805053199914951, 1.280485278207229 ], [ 103.805442163038251, 1.280382183500604 ], [ 103.80584198094634, 1.280385800858802 ], [ 103.805518146532066, 1.280159715961656 ], [ 103.805058627307361, 1.280130777093382 ], [ 103.804687755492139, 1.28088318756233 ], [ 103.804568352858936, 1.280828927199363 ], [ 103.80463619526418, 1.280634494222631 ], [ 103.804679614403511, 1.280647154975053 ], [ 103.804923847062298, 1.280157002942769 ], [ 103.80477730746702, 1.280157002942769 ], [ 103.804309647153715, 1.281218697447823 ] ] ] ] } }
]
}
