{
"type": "FeatureCollection",
"name": "deforested",
"crs": { "type": "name", "properties": { "name": "urn:ogc:def:crs:OGC:1.3:CRS84" } },
"features": [
{ "type": "Feature", "properties": { "id": 0, "uid": "8cbcd280-96e8-11f1-9962-e3c92fbd79cc", "name": "Dover Forest East", "area_ha": 8.6631, "dominant_lu_desc": "RESIDENTIAL", "lu_desc_breakdown": { "RESIDENTIAL": 5.097, "RESIDENTIAL WITH COMMERCIAL AT 1ST STOREY": 3.0682, "PARK": 0.3515, "ROAD": 0.1464, "WATERBODY": 0.0001 }, "gpr": "3.4, 3.6, EVA, SDP", "centroid_lon": 103.780432, "centroid_lat": 1.311702, "source": "curated ∩ URA_MP2025" }, "geometry": { "type": "Polygon", "coordinates": [ [ [ 103.777259, 1.312456 ], [ 103.77658, 1.312712 ], [ 103.776557, 1.312596 ], [ 103.777244, 1.3124 ], [ 103.777931, 1.312118 ], [ 103.778531, 1.311808 ], [ 103.778574, 1.311871 ], [ 103.779015, 1.311591 ], [ 103.779005, 1.311549 ], [ 103.779491, 1.311219 ], [ 103.779533, 1.311155 ], [ 103.781561, 1.3099 ], [ 103.781933, 1.310032 ], [ 103.782896, 1.31123 ], [ 103.782997, 1.31142 ], [ 103.782837, 1.311494 ], [ 103.782379, 1.310936 ], [ 103.782178, 1.311031 ], [ 103.782115, 1.310956 ], [ 103.781788, 1.311227 ], [ 103.781902, 1.311413 ], [ 103.782185, 1.311313 ], [ 103.782291, 1.311597 ], [ 103.781269, 1.312003 ], [ 103.781282, 1.312062 ], [ 103.781125, 1.312107 ], [ 103.781107, 1.312052 ], [ 103.780401, 1.312227 ], [ 103.779539, 1.312505 ], [ 103.779321, 1.312531 ], [ 103.779254, 1.312365 ], [ 103.779039, 1.312465 ], [ 103.779102, 1.31263 ], [ 103.77828, 1.31301 ], [ 103.778354, 1.313134 ], [ 103.777955, 1.313447 ], [ 103.777798, 1.313164 ], [ 103.777652, 1.313213 ], [ 103.777259, 1.312456 ] ] ] } },
{ "type": "Feature", "properties": { "id": 1, "uid": "8cbcf990-96e8-11f1-9962-e3c92fbd79cc", "name": "Tengah Forest", "area_ha": 299.3838, "dominant_lu_desc": "RESIDENTIAL", "lu_desc_breakdown": { "RESIDENTIAL": 108.9825, "ROAD": 52.5687, "TRANSPORT FACILITIES": 44.4178, "PARK": 28.5123, "BUSINESS 2": 15.0871, "EDUCATIONAL INSTITUTION": 12.6432, "COMMERCIAL & RESIDENTIAL": 12.3569, "RESERVE SITE": 9.2774, "HEALTH & MEDICAL CARE": 4.5601, "WATERBODY": 3.6745, "PLACE OF WORSHIP": 2.0684, "MASS RAPID TRANSIT": 1.8966, "UTILITY": 1.4894, "SPORTS & RECREATION": 0.7155, "RESIDENTIAL WITH COMMERCIAL AT 1ST STOREY": 0.5405, "COMMERCIAL": 0.2623, "OPEN SPACE": 0.1866, "CIVIC & COMMUNITY INSTITUTION": 0.1443 }, "gpr": "2.8, 2.9, 3.0, 3.2, EVA, SDP", "centroid_lon": 103.733746, "centroid_lat": 1.361598, "source": "curated ∩ URA_MP2025" }, "geometry": { "type": "MultiPolygon", "coordinates": [ [ [ [ 103.721913, 1.3567 ], [ 103.722149, 1.356776 ], [ 103.72244, 1.357198 ], [ 103.721528, 1.357891 ], [ 103.719739, 1.358495 ], [ 103.719497, 1.358975 ], [ 103.720245, 1.359899 ], [ 103.715747, 1.364031 ], [ 103.714698, 1.366545 ], [ 103.713226, 1.364881 ], [ 103.711709, 1.366202 ], [ 103.711423, 1.365862 ], [ 103.711084, 1.366089 ], [ 103.709636, 1.364754 ], [ 103.70904, 1.36385 ], [ 103.709515, 1.362719 ], [ 103.710084, 1.361909 ], [ 103.712844, 1.359316 ], [ 103.713779, 1.358736 ], [ 103.714138, 1.35805 ], [ 103.715202, 1.357665 ], [ 103.715568, 1.358165 ], [ 103.715991, 1.357896 ], [ 103.71601, 1.358062 ], [ 103.716434, 1.357953 ], [ 103.716395, 1.35778 ], [ 103.716697, 1.35771 ], [ 103.716741, 1.357844 ], [ 103.717319, 1.357335 ], [ 103.717206, 1.356868 ], [ 103.719025, 1.3567 ], [ 103.721026, 1.356578 ], [ 103.721913, 1.3567 ] ] ], [ [ [ 103.723872, 1.356608 ], [ 103.723655, 1.356387 ], [ 103.72455, 1.356182 ], [ 103.725292, 1.356915 ], [ 103.725463, 1.357157 ], [ 103.726174, 1.357026 ], [ 103.726658, 1.356717 ], [ 103.728631, 1.354626 ], [ 103.727592, 1.354299 ], [ 103.72993, 1.352823 ], [ 103.73112, 1.353906 ], [ 103.731661, 1.354674 ], [ 103.73238, 1.353932 ], [ 103.732184, 1.353805 ], [ 103.731616, 1.353137 ], [ 103.731476, 1.352487 ], [ 103.73209, 1.351981 ], [ 103.733642, 1.350739 ], [ 103.733399, 1.350117 ], [ 103.736184, 1.347351 ], [ 103.736982, 1.346764 ], [ 103.737412, 1.346788 ], [ 103.737733, 1.34714 ], [ 103.738022, 1.347921 ], [ 103.737959, 1.349165 ], [ 103.737764, 1.349954 ], [ 103.737475, 1.351351 ], [ 103.736608, 1.353434 ], [ 103.736309, 1.354178 ], [ 103.736329, 1.355352 ], [ 103.736638, 1.356415 ], [ 103.737237, 1.357406 ], [ 103.738047, 1.358154 ], [ 103.742169, 1.363106 ], [ 103.738898, 1.36514 ], [ 103.738382, 1.364574 ], [ 103.73772, 1.365543 ], [ 103.737019, 1.366605 ], [ 103.735829, 1.367348 ], [ 103.733756, 1.367385 ], [ 103.733721, 1.364892 ], [ 103.729851, 1.364922 ], [ 103.73278, 1.372974 ], [ 103.734717, 1.371496 ], [ 103.735003, 1.371973 ], [ 103.735089, 1.372812 ], [ 103.734765, 1.373699 ], [ 103.733715, 1.374973 ], [ 103.73303, 1.375781 ], [ 103.732153, 1.375028 ], [ 103.732948, 1.374083 ], [ 103.732359, 1.373357 ], [ 103.731852, 1.37211 ], [ 103.728809, 1.363617 ], [ 103.726445, 1.363452 ], [ 103.726009, 1.362014 ], [ 103.726605, 1.36193 ], [ 103.726552, 1.361265 ], [ 103.725769, 1.361239 ], [ 103.725573, 1.360678 ], [ 103.727094, 1.360678 ], [ 103.726833, 1.35981 ], [ 103.726187, 1.359966 ], [ 103.725567, 1.359679 ], [ 103.72528, 1.359086 ], [ 103.724131, 1.359105 ], [ 103.724131, 1.358714 ], [ 103.726135, 1.358616 ], [ 103.723872, 1.356608 ] ] ] ] } }
]
}
